GLOBALSTAR M094 [+]     
1 39074U 13005C   24065.56563536 -.00000105  00000+0 -79567-5 0  9994
2 39074  51.9950 168.9310 0000515 100.0974 259.9951 12.62263336513197
GLOBALSTAR M096 [+]     
1 39075U 13005D   24065.57883044 -.00000090  00000+0  74480-4 0  9995
2 39075  52.0054 217.0389 0000606  83.0843 277.0093 12.62273215512119
GLOBALSTAR M078 [+]     
1 39076U 13005E   24065.07774939 -.00000169  00000+0 -36520-3 0  9993
2 39076  51.9882 303.7177 0000631 182.2963 177.7901 12.62260460510679
GLOBALSTAR M095 [+]     
1 39077U 13005F   24065.57875718 -.00000065  00000+0  21421-3 0  9994
2 39077  51.9802 299.6186 0000128  71.7169 288.3712 12.62264135510599
GLOBALSTAR M087 [+]     
1 52888U 22064A   24065.61744266 -.00000099  00000+0  56147-4 0  9993
2 52888  51.9743 209.5219 0010262 101.6359 258.5694 13.37566684 83667
